{
  "type": "FeatureCollection",
  "features": [
    {
      "type": "Feature",
      "id": "fixture-way-main",
      "geometry": {
        "type": "MultiLineString",
        "coordinates": [
          [[0, 0], [0.001, 0], [0.002, 0], [0.003, 0], [0.004, 0], [0.005, 0], [0.006, 0], [0.007, 0.00005], [0.008, 0], [0.009, 0], [0.01, 0], [0.011, 0], [0.012, 0], [0.013, 0.00015], [0.014, 0], [0.015, 0], [0.016, 0], [0.017, 0], [0.018, 0], [0.019, 0], [0.02, 0]],
          [[0.02, 0], [0.02, 0.001], [0.02, 0.002], [0.02, 0.003], [0.02, 0.004], [0.02, 0.005], [0.02, 0.006], [0.02, 0.007], [0.02, 0.008], [0.02, 0.009], [0.02, 0.01], [0.02, 0.011], [0.02, 0.012], [0.02, 0.013], [0.02, 0.014], [0.02, 0.015], [0.02, 0.016], [0.02, 0.017], [0.02, 0.018], [0.02, 0.019], [0.02, 0.02]]
        ]
      },
      "properties": {
        "routeId": "fixture-way",
        "name": "Fixture Way",
        "type": "main",
        "source": "Synthetic fixture, not derived from OpenStreetMap"
      }
    }
  ]
}
