{
  "type": "FeatureCollection",
  "features": [
    { "type": "Feature", "id": "wp-start-town", "geometry": { "type": "Point", "coordinates": [0, 0] },
      "properties": { "routeId": "fixture-way", "name": "Start Town", "type": "town", "stageIndex": 0, "kmFromStart": 0, "description": "Where the way begins." } },
    { "type": "Feature", "id": "wp-shrine", "geometry": { "type": "Point", "coordinates": [0.005, 0.0002] },
      "properties": { "routeId": "fixture-way", "name": "Roadside Shrine", "type": "sacred_site", "stageIndex": 0, "kmFromStart": 0.56, "description": "A whitewashed niche with a candle in it." } },
    { "type": "Feature", "id": "wp-museum", "geometry": { "type": "Point", "coordinates": [0.008, 0] },
      "properties": { "routeId": "fixture-way", "name": "Village Museum", "type": "cultural_site", "stageIndex": 0, "kmFromStart": 0.89 } },
    { "type": "Feature", "id": "wp-lookout", "geometry": { "type": "Point", "coordinates": [0.012, 0.0005] },
      "properties": { "routeId": "fixture-way", "name": "Lookout", "type": "viewpoint", "stageIndex": 1, "kmFromStart": 1.33, "description": "The whole first leg, behind you." } },
    { "type": "Feature", "id": "temple-3", "geometry": { "type": "Point", "coordinates": [0.016, 0] },
      "properties": { "routeId": "fixture-way", "name": "Third Temple", "type": "sacred_site", "subtype": "temple", "stageIndex": 1, "kmFromStart": 1.78, "templeNumber": 3, "tradition": "buddhist", "denomination": "Koyasan Shingon", "credentialStamp": true, "stampFee": { "currency": "JPY", "amount": 500 } } },
    { "type": "Feature", "id": "wp-office", "geometry": { "type": "Point", "coordinates": [0.02, 0.004] },
      "properties": { "routeId": "fixture-way", "name": "Pilgrim Office", "nameLocalized": { "es": "Oficina del Peregrino" }, "type": "credential_stamp", "stageIndex": 1, "kmFromStart": 2.67, "credentialStamp": true } },
    { "type": "Feature", "id": "wp-far-chapel", "geometry": { "type": "Point", "coordinates": [0.014, 0.004] },
      "properties": { "routeId": "fixture-way", "name": "Far Chapel", "type": "sacred_site", "stageIndex": 1, "kmFromStart": 1.56 } },
    { "type": "Feature", "id": "wp-end-town", "geometry": { "type": "Point", "coordinates": [0.02, 0.02] },
      "properties": { "routeId": "fixture-way", "name": "End Town", "nameLocalized": { "es": "Pueblo Final" }, "type": "town", "stageIndex": 2, "kmFromStart": 4.45 } },
    { "type": "Feature", "id": "wp-fuente", "geometry": { "type": "Point", "coordinates": [0.006, 0.0003] },
      "properties": { "routeId": "fixture-way", "name": "Fuente del Camino", "type": "water_source", "stageIndex": 0, "kmFromStart": 0.67, "waterReliability": "permanent" } },
    { "type": "Feature", "id": "wp-far-fountain", "geometry": { "type": "Point", "coordinates": [0.007, 0.004] },
      "properties": { "routeId": "fixture-way", "name": "Far Fountain", "type": "water_source", "stageIndex": 0, "kmFromStart": 0.78 } },
    { "type": "Feature", "id": "wp-cafe", "geometry": { "type": "Point", "coordinates": [0.013, 0.0002] },
      "properties": { "routeId": "fixture-way", "name": "Bar Central", "type": "food", "stageIndex": 1, "kmFromStart": 1.45 } },
    { "type": "Feature", "id": "wp-albergue", "geometry": { "type": "Point", "coordinates": [0.02, 0.012] },
      "properties": { "routeId": "fixture-way", "name": "Albergue Municipal", "type": "accommodation", "stageIndex": 2, "kmFromStart": 3.56, "capacity": 24 } },
    { "type": "Feature", "id": "wp-clinic", "geometry": { "type": "Point", "coordinates": [0.02, 0.014] },
      "properties": { "routeId": "fixture-way", "name": "Centro de Salud", "type": "medical", "stageIndex": 2, "kmFromStart": 3.78 } },
    { "type": "Feature", "id": "wp-shop", "geometry": { "type": "Point", "coordinates": [0.02, 0.016] },
      "properties": { "routeId": "fixture-way", "name": "Tienda", "type": "supply", "stageIndex": 2, "kmFromStart": 4 } },
    { "type": "Feature", "id": "wp-bus", "geometry": { "type": "Point", "coordinates": [0.02, 0.018] },
      "properties": { "routeId": "fixture-way", "name": "Parada de Autobús", "type": "transport", "stageIndex": 2, "kmFromStart": 4.22 } }
  ]
}
