{"type":"FeatureCollection","features":[{"type":"Feature","id":"kumano-kodo-nakahechi-main-line","geometry":{"type":"LineString","coordinates":[[135.5037245,33.775514],[135.5035827,33.7757999],[135.503555,33.776007],[135.503617,33.7760915],[135.5036873,33.7760955],[135.5038593,33.7760275],[135.5039799,33.7759805],[135.5039234,33.7758963],[135.5039917,33.775758],[135.5041618,33.7758623],[135.5043806,33.776054],[135.5045232,33.776114],[135.5044454,33.7762545],[135.5042999,33.7763635],[135.5042642,33.7764489],[135.5042582,33.776503],[135.5042992,33.7764957],[135.5043349,33.7764993],[135.5043477,33.77652],[135.5044691,33.7764796],[135.504535,33.7764786],[135.504584,33.7765542],[135.5047024,33.7766069],[135.5047772,33.7766557],[135.5048544,33.7768064],[135.5049581,33.7768679],[135.5049898,33.7767554],[135.5050175,33.7767617],[135.5051377,33.7768064],[135.5052104,33.7768624],[135.5054163,33.7768356],[135.5055914,33.7768805],[135.5058064,33.776892],[135.5060616,33.7769328],[135.5062239,33.7769557],[135.5063353,33.776928],[135.5064498,33.7769834],[135.5065433,33.7771187],[135.5066243,33.7771433],[135.506893,33.7773636],[135.506972,33.7774983],[135.5071985,33.7775933],[135.5073605,33.7776782],[135.5074426,33.7776878],[135.5076122,33.7776572],[135.5080323,33.777583],[135.5081515,33.7775651],[135.5081956,33.7775225],[135.5082686,33.7775406],[135.5085473,33.7775246],[135.5087555,33.7775631],[135.5089806,33.7776659],[135.5091104,33.7776727],[135.5093578,33.7777408],[135.5095922,33.777858],[135.5098053,33.777894],[135.5098985,33.7779426],[135.5100548,33.7780923],[135.5103484,33.7781679],[135.5104901,33.7781577],[135.5107626,33.7782427],[135.5109257,33.7782624],[135.5110889,33.7783413],[135.511153,33.7783204],[135.5113377,33.7784583],[135.5114261,33.7784868],[135.5115421,33.7784853],[135.5116677,33.7785456],[135.5118911,33.7787743],[135.5122449,33.7788144],[135.5122995,33.7787996],[135.5123565,33.7790066],[135.5123509,33.7792104],[135.5123921,33.7793892],[135.5124313,33.7796414],[135.5124229,33.7798336],[135.5124761,33.7799772],[135.512473,33.7801494],[135.5124175,33.7803268],[135.5124959,33.7805576],[135.5124931,33.7808334],[135.5124768,33.7811515],[135.5125085,33.7812775],[135.5127245,33.7814192],[135.5129311,33.7815749],[135.513009,33.7816554],[135.5131778,33.7818202],[135.5133225,33.7818962],[135.51347,33.7819842],[135.5137838,33.7821436],[135.5140252,33.782235],[135.5141204,33.7823567],[135.5142243,33.7825632],[135.5142972,33.7827996],[135.5144339,33.7828634],[135.5151825,33.7829905],[135.5160796,33.7831233],[135.5163648,33.7832242],[135.5168732,33.7834858],[135.5171525,33.7836652],[135.5175657,33.7838984],[135.5178912,33.7841138],[135.5181526,33.784438],[135.518588,33.784764],[135.51883,33.78495],[135.5189648,33.7851366],[135.5194668,33.7856672],[135.5196456,33.7858746],[135.5198447,33.7860349],[135.519882,33.7861049],[135.5199241,33.7861011],[135.5199466,33.7860508],[135.5199676,33.7860156],[135.5200177,33.7860973],[135.52006,33.7861926],[135.5200845,33.7862121],[135.5200988,33.7863352],[135.5200535,33.7863865],[135.5200038,33.7863937],[135.519993,33.7864083],[135.5201626,33.7865249],[135.520209,33.7865422],[135.5202294,33.7866159],[135.520268,33.7866592],[135.5204571,33.7868831],[135.5206034,33.7872136],[135.5207547,33.7873546],[135.5208705,33.7874292],[135.5209597,33.787517],[135.5211223,33.7876965],[135.5212556,33.7879556],[135.5213891,33.788121],[135.5216056,33.7882683],[135.5218451,33.7884636],[135.5219763,33.7886526],[135.5220409,33.7887576],[135.5220984,33.7888367],[135.5223182,33.7890028],[135.5225892,33.7893393],[135.5226651,33.7894273],[135.5228682,33.7895627],[135.5230515,33.7897835],[135.5232558,33.7898031],[135.52346,33.7898988],[135.5238036,33.7903089],[135.5239307,33.7905084],[135.5240456,33.7907591],[135.5242023,33.7912253],[135.5246276,33.7914318],[135.5248941,33.7915659],[135.5250745,33.7917559],[135.5252655,33.7919236],[135.525389,33.7920565],[135.5254297,33.7921432],[135.5254706,33.7923187],[135.5255618,33.7925307],[135.5255623,33.7926729],[135.5255775,33.792758],[135.52562,33.792814],[135.5259031,33.793073],[135.5259632,33.7932984],[135.5260656,33.7934416],[135.5260976,33.7934928],[135.5261984,33.7935805],[135.5263137,33.7936843],[135.526574,33.793834],[135.5267255,33.7938781],[135.5271645,33.7938935],[135.5273816,33.7939423],[135.527741,33.7940908],[135.5281107,33.7941119],[135.5284117,33.7941698],[135.5288477,33.7943184],[135.5290963,33.7943391],[135.5294277,33.7944458],[135.5296977,33.7945588],[135.5298941,33.7946154],[135.5299765,33.794604],[135.5301791,33.7947759],[135.530316,33.7948805],[135.5303675,33.7949087],[135.5304095,33.7948588],[135.530443,33.7948421],[135.5307821,33.7948641],[135.5308595,33.7948822],[135.5309664,33.795008],[135.5311792,33.7950614],[135.531401,33.7951303],[135.53154,33.7951133],[135.531828,33.7950621],[135.5320378,33.7951032],[135.5322971,33.7950471],[135.532408,33.7950381],[135.532575,33.7949878],[135.532644,33.7950382],[135.5328356,33.7950279],[135.5330284,33.7950811],[135.5331606,33.7951079],[135.5332793,33.7951173],[135.5333655,33.7951687],[135.5334136,33.7951497],[135.5335933,33.7951803],[135.5337657,33.7951602],[135.5339802,33.7951502],[135.534172,33.795097],[135.5343,33.795108],[135.534389,33.795108],[135.5345871,33.7950881],[135.5347892,33.7951172],[135.5349921,33.7951242],[135.5351245,33.7951212],[135.535317,33.7951433],[135.5355882,33.7952382],[135.536005,33.795329],[135.536216,33.7953821],[135.5363509,33.7954433],[135.5365871,33.7954428],[135.5369564,33.7955484],[135.537224,33.795454],[135.5376121,33.795376],[135.5378345,33.7954585],[135.5381174,33.7954867],[135.5384351,33.7956115],[135.5387622,33.7957885],[135.5397966,33.796349],[135.5400517,33.7965312],[135.5404918,33.7968072],[135.5408619,33.7970844],[135.541084,33.7973001],[135.5411395,33.7974043],[135.5412707,33.7977797],[135.5413795,33.797921],[135.5417961,33.7980842],[135.5420331,33.7980845],[135.5424231,33.7980728],[135.5428815,33.7979554],[135.5431791,33.7979111],[135.5434905,33.7978911],[135.5436414,33.7979332],[135.5437778,33.7979416],[135.5440343,33.7980482],[135.5443783,33.7979864],[135.544748,33.798063],[135.5449371,33.7980991],[135.54528,33.7980933],[135.5455724,33.7981407],[135.5458962,33.7981736],[135.546297,33.7982974],[135.5465859,33.7983673],[135.5466418,33.7983187],[135.5466825,33.7979189],[135.5470873,33.7973816],[135.5471449,33.7973288],[135.5475477,33.7971555],[135.548008,33.796851],[135.5486621,33.7967524],[135.5494171,33.796486],[135.5497409,33.7963563],[135.5500225,33.796182],[135.550303,33.7961785],[135.5506222,33.7962437],[135.5510565,33.7962026],[135.5513783,33.7961992],[135.5516198,33.796081],[135.5517002,33.7959532],[135.5518899,33.7958584],[135.5522417,33.7957846],[135.5526134,33.7958531],[135.5530892,33.7958994],[135.5533544,33.7958691],[135.5537209,33.7960004],[135.5540526,33.7960438],[135.5542329,33.7960596],[135.5545289,33.7960005],[135.5547537,33.7962298],[135.5550726,33.7964086],[135.5554015,33.7966901],[135.5558041,33.7969853],[135.5563015,33.7972247],[135.5566582,33.7974875],[135.5569125,33.7976222],[135.5570679,33.7977664],[135.5573788,33.7980175],[135.5576141,33.798112],[135.5578423,33.7982742],[135.5580728,33.7985442],[135.5582971,33.7987685],[135.5586321,33.7990527],[135.5587869,33.7992376],[135.5589857,33.7997878],[135.55915,33.7999464],[135.5593461,33.8000911],[135.5594046,33.8001951],[135.5594343,33.8003296],[135.5595849,33.8006212],[135.5596829,33.8008264],[135.5599268,33.8009171],[135.5602109,33.8010399],[135.5602868,33.801215],[135.5603374,33.8013713],[135.5604996,33.8016529],[135.5607459,33.8016133],[135.5609616,33.8015077],[135.5611121,33.8014535],[135.5613349,33.8014746],[135.5615189,33.8016297],[135.5615484,33.8017323],[135.5618487,33.801944],[135.562008,33.8019977],[135.5624448,33.802113],[135.5626085,33.8020909],[135.5627862,33.8021763],[135.5629009,33.8022956],[135.5631816,33.8023103],[135.5636065,33.8022874],[135.5638607,33.8022389],[135.5641401,33.80228],[135.5645261,33.8024443],[135.5648493,33.8025534],[135.5651749,33.8028913],[135.5656048,33.8031554],[135.565891,33.8032477],[135.5662656,33.8032402],[135.5664356,33.8032507],[135.5665283,33.803407],[135.566571,33.8037701],[135.5666843,33.8039908],[135.5669245,33.8040991],[135.5671938,33.8041127],[135.5674447,33.8044345],[135.5679302,33.8046168],[135.5684572,33.804836],[135.5688343,33.8049479],[135.5693483,33.8049496],[135.5699012,33.8048938],[135.5702192,33.8048797],[135.5704409,33.805],[135.5708447,33.8051745],[135.571062,33.805443],[135.571163,33.805493],[135.5715453,33.8058865],[135.5716031,33.8061753],[135.571693,33.8064199],[135.5721528,33.8067478],[135.5726791,33.8072432],[135.5729399,33.8074692],[135.5732455,33.8075624],[135.5737788,33.8075381],[135.5741159,33.8073427],[135.5746184,33.8073554],[135.5749342,33.8074061],[135.5750878,33.8073901],[135.5754068,33.8078021],[135.5756516,33.807874],[135.575832,33.8080529],[135.5759488,33.8081792],[135.5762572,33.8083037],[135.5763894,33.8083766],[135.5765577,33.8085436],[135.5771764,33.8087294],[135.5775158,33.808902],[135.5779212,33.8090991],[135.5782223,33.8091599],[135.5786576,33.8093578],[135.5788455,33.8093317],[135.5792057,33.809493],[135.5794426,33.8095027],[135.5796302,33.8097242],[135.5796419,33.8098745],[135.5799905,33.8102801],[135.5804075,33.8109627],[135.5806138,33.8112754],[135.5807774,33.811408],[135.5809689,33.8115848],[135.5812332,33.8118523],[135.5813928,33.811966],[135.5817209,33.8120376],[135.5820989,33.8122612],[135.5823671,33.812495],[135.5825136,33.8126446],[135.5826996,33.8128554],[135.582744,33.812928],[135.5830646,33.8131189],[135.583257,33.813217],[135.583277,33.813217],[135.5835646,33.8135305],[135.58375,33.8137671],[135.583824,33.8140671],[135.5839771,33.8143116],[135.583957,33.8143449],[135.5836881,33.8142661],[135.5837509,33.8144558],[135.5838855,33.8145153],[135.5841074,33.8145261],[135.5843462,33.8145228],[135.5844298,33.8145333],[135.58454,33.814473],[135.5846572,33.8143411],[135.5847879,33.8141759],[135.584892,33.8140602],[135.5854492,33.8139601],[135.5856614,33.8138586],[135.5858348,33.8137471],[135.58592,33.8136088],[135.5861408,33.8135433],[135.5862691,33.8134704],[135.5864818,33.8134716],[135.586558,33.813567],[135.586598,33.8136283],[135.5867513,33.8136538],[135.5868254,33.8138323],[135.586913,33.8138501],[135.5869727,33.8136951],[135.5870526,33.8136299],[135.5872535,33.8138107],[135.5874333,33.8140194],[135.587561,33.8141609],[135.5875574,33.8143265],[135.5875486,33.8143783],[135.5876421,33.814403],[135.5878329,33.8144362],[135.5880331,33.814447],[135.5881216,33.8144292],[135.5881592,33.8143556],[135.5880921,33.8143422],[135.5881136,33.8142776],[135.5882128,33.8142888],[135.5883228,33.8143734],[135.5883378,33.8143759],[135.5884473,33.8143941],[135.5884703,33.814398],[135.588583,33.8144871],[135.5887761,33.8146007],[135.5888727,33.8147189],[135.589098,33.8147501],[135.5893689,33.8147969],[135.5895191,33.8147567],[135.5896451,33.8147634],[135.5898329,33.8146877],[135.5899804,33.8146386],[135.5901226,33.8146542],[135.5902701,33.8145339],[135.5902352,33.8144782],[135.5904471,33.8143734],[135.5907582,33.8141394],[135.5910828,33.8139834],[135.591351,33.8138765],[135.5914637,33.8137784],[135.5915388,33.8136091],[135.5916461,33.8134731],[135.5918016,33.8133728],[135.5919223,33.8133305],[135.5920779,33.8132993],[135.5925795,33.8132904],[135.5927458,33.8132235],[135.5928799,33.8131656],[135.5929598,33.8131942],[135.5930575,33.8131931],[135.5933069,33.813116],[135.5934845,33.8128882],[135.5936642,33.8128568],[135.5938982,33.8129996],[135.5941295,33.8129746],[135.5943453,33.8129006],[135.5946876,33.812743],[135.5948722,33.8126586],[135.5948636,33.8125664],[135.594972,33.8125435],[135.5950615,33.8124937],[135.5952961,33.8124358],[135.5954722,33.8124097],[135.5955709,33.812431],[135.595762,33.8124276],[135.5958667,33.8123893],[135.5961509,33.8122897],[135.5962829,33.8122751],[135.5963862,33.8122946],[135.5964717,33.8123705],[135.5965841,33.8125027],[135.596745,33.8126434],[135.5969211,33.812704],[135.5970647,33.8126477],[135.5970729,33.8125637],[135.5970972,33.8125236],[135.5971103,33.8124773],[135.5971114,33.8124304],[135.5971927,33.8123601],[135.5972265,33.8122844],[135.5972591,33.8121709],[135.5974132,33.8120817],[135.5975361,33.8120544],[135.5976172,33.8121085],[135.5976939,33.812118],[135.5978424,33.8120993],[135.5979306,33.8121134],[135.5981013,33.8119782],[135.5982402,33.8119701],[135.5984217,33.811818],[135.5985424,33.8117498],[135.5986671,33.8117335],[135.5990044,33.8119014],[135.5991006,33.8118867],[135.5991348,33.8119278],[135.5991969,33.8119127],[135.599324,33.8118505],[135.5994212,33.8117597],[135.5995596,33.8116741],[135.6000678,33.8114615],[135.6002065,33.8113761],[135.600278,33.8113445],[135.6004337,33.8113191],[135.6007186,33.8113497],[135.600836,33.8113608],[135.601089,33.8112058],[135.6011999,33.8111578],[135.6012626,33.8110787],[135.6012546,33.8110572],[135.601391,33.8110572],[135.6016599,33.8111023],[135.6019381,33.8112114],[135.6021912,33.8112346],[135.6024249,33.8112826],[135.6025508,33.8113297],[135.602658,33.8114144],[135.6027658,33.8114421],[135.6028466,33.8115149],[135.6029381,33.8115235],[135.602999,33.811617],[135.60307,33.8116662],[135.603089,33.811714],[135.6029599,33.8117746],[135.6029368,33.8118019],[135.6030284,33.8118646],[135.6031352,33.811892],[135.6031793,33.8119296],[135.6031673,33.8119917],[135.603121,33.812023],[135.602979,33.812082],[135.60284,33.812126],[135.602744,33.812168],[135.6027342,33.8121823],[135.6027235,33.8122072],[135.6027274,33.8122561],[135.6027482,33.8123559],[135.6029822,33.8125756],[135.6031173,33.8127113],[135.6032305,33.8128197],[135.6032224,33.8130957],[135.6033047,33.8133989],[135.603376,33.8135072],[135.6036626,33.8137197],[135.6038137,33.8138066],[135.603978,33.8138041],[135.6042754,33.8140325],[135.6042791,33.8140913],[135.6045174,33.8141112],[135.6047426,33.8141354],[135.6055507,33.8142347],[135.6057596,33.8142555],[135.6060759,33.8143352],[135.6062242,33.8143833],[135.6064488,33.8144594],[135.6065774,33.8145001],[135.606804,33.8145734],[135.606897,33.8145939],[135.607089,33.8146395],[135.6072586,33.8146847],[135.6073781,33.8147134],[135.6074033,33.8147194],[135.6075172,33.8147468],[135.6077575,33.8148225],[135.6079899,33.814947],[135.6083094,33.8151805],[135.6085412,33.8153008],[135.6086908,33.8153571],[135.6087857,33.8153822],[135.6088816,33.8153878],[135.60895,33.8153808],[135.6089808,33.8154028],[135.6091163,33.8154167],[135.6091873,33.8154037],[135.6094576,33.8152197],[135.6095705,33.8151925],[135.6097475,33.8152003],[135.6100978,33.8152634],[135.6104263,33.8153606],[135.6104643,33.815388],[135.6105438,33.8154595],[135.6106953,33.8155388],[135.610832,33.8156178],[135.6109247,33.8157123],[135.6110782,33.8158309],[135.6114026,33.8159799],[135.6114931,33.8159832],[135.6117547,33.8158348],[135.6119026,33.815796],[135.6123593,33.8158071],[135.6123818,33.8159655],[135.6124424,33.8160313],[135.6126629,33.8161101],[135.6127901,33.8162311],[135.612878,33.8163153],[135.6129451,33.816342],[135.612938,33.81642],[135.612946,33.816463],[135.612963,33.816489],[135.6130006,33.8165255],[135.613096,33.8165833],[135.6131738,33.8166097],[135.6133442,33.8166625],[135.6135258,33.8167309],[135.6137845,33.816826],[135.6141767,33.8169837],[135.6146587,33.8170326],[135.6149018,33.817058],[135.6151187,33.8171123],[135.6153031,33.817213],[135.6154673,33.8173508],[135.6156689,33.8175808],[135.6157967,33.8177361],[135.6158962,33.817802],[135.6159899,33.8178312],[135.6161101,33.8178452],[135.6162028,33.8180729],[135.6163403,33.8181183],[135.6164088,33.8181425],[135.6166209,33.818447],[135.6167204,33.8186616],[135.6168074,33.8188201],[135.6169081,33.8188867],[135.6170729,33.8189853],[135.6172026,33.8191126],[135.6172714,33.819192],[135.6174621,33.819322],[135.6175894,33.8193811],[135.6177095,33.8194879],[135.6178431,33.8195825],[135.6179898,33.8196644],[135.6180399,33.8197427],[135.6179169,33.8198354],[135.618002,33.820023],[135.618049,33.820096],[135.618102,33.820141],[135.6184718,33.8204455],[135.6188113,33.8206402],[135.6189498,33.8206786],[135.619182,33.8207108],[135.6193793,33.8207053],[135.6194543,33.8207022],[135.619797,33.820688],[135.62002,33.820705],[135.620087,33.820716],[135.620128,33.820739],[135.6202891,33.8208339],[135.62058,33.820841],[135.620695,33.820897],[135.6209302,33.8211146],[135.6209983,33.8211451],[135.6211748,33.821195],[135.6212043,33.8212262],[135.621201,33.8212752],[135.6213722,33.8213544],[135.6214732,33.8214018],[135.6216521,33.8214367],[135.6219282,33.8214614],[135.6223595,33.8215431],[135.6225752,33.8215994],[135.6227451,33.821657],[135.6228746,33.8217095],[135.6229693,33.8217739],[135.6230301,33.8218886],[135.6231621,33.8220232],[135.6233459,33.822119],[135.6237035,33.8221653],[135.624013,33.822175],[135.62421,33.8222248],[135.6243158,33.8222725],[135.6244205,33.8223428],[135.624479,33.8223794],[135.624594,33.8224351],[135.6247075,33.8224768],[135.6248217,33.8225076],[135.625008,33.822645],[135.6252087,33.8227057],[135.6253435,33.8227147],[135.625526,33.8227035],[135.6255594,33.8226648],[135.6257372,33.8227764],[135.6258714,33.8228414],[135.6260504,33.8229128],[135.6261537,33.8229856],[135.626207,33.823072],[135.626255,33.823247],[135.626262,33.823417],[135.626241,33.823467],[135.6262182,33.8235022],[135.626113,33.823665],[135.6261,33.823704],[135.62606,33.823772],[135.625977,33.824052],[135.625977,33.824055],[135.625973,33.824085],[135.625951,33.82425],[135.625971,33.824408],[135.626018,33.824477],[135.626093,33.824515],[135.626201,33.824545],[135.626485,33.824555],[135.626558,33.82459],[135.62664,33.824673],[135.62672,33.824787],[135.626778,33.824899],[135.626783,33.824909],[135.626801,33.824943],[135.626845,33.825025],[135.62697,33.825085],[135.627071,33.825069],[135.627172,33.824995],[135.6273621,33.8247669],[135.6275323,33.8245428],[135.6276433,33.8244859],[135.6278195,33.8244504],[135.6283256,33.8242527],[135.6286215,33.8242175],[135.6287363,33.8242676],[135.6288422,33.8243386],[135.6288964,33.8243749],[135.6290348,33.8244819],[135.6291149,33.8245736],[135.629149,33.8246185],[135.6294134,33.8248062],[135.6294697,33.8248842],[135.629484,33.8249453],[135.629536,33.825339],[135.62967,33.825564],[135.629691,33.825605],[135.629807,33.825693],[135.629975,33.8257163],[135.6302492,33.8257167],[135.6304634,33.8257498],[135.6304702,33.8257892],[135.6307944,33.8259122],[135.6313008,33.8261566],[135.6314121,33.8263005],[135.631504,33.82639],[135.631709,33.826574],[135.6319344,33.8267071],[135.6324075,33.8270412],[135.6326571,33.8272783],[135.6328945,33.8275074],[135.6329729,33.8276279],[135.6331424,33.8277264],[135.6333309,33.8277845],[135.633473,33.8278654],[135.6336221,33.8279455],[135.6337425,33.8280321],[135.633914,33.8281309],[135.6340526,33.8281452],[135.6341928,33.8281385],[135.6343117,33.8281543],[135.6344232,33.8281754],[135.634553,33.8282069],[135.634753,33.82826],[135.634867,33.828299],[135.635191,33.828469],[135.635306,33.828531],[135.6354689,33.8285997],[135.6357185,33.8287248],[135.6358172,33.8287796],[135.635927,33.828841],[135.6360234,33.8288639],[135.6363311,33.8289471],[135.6366194,33.8290074],[135.6370362,33.8290933],[135.637316,33.829162],[135.63783,33.82932],[135.638019,33.829416],[135.6381761,33.8295003],[135.6383461,33.8296],[135.6384815,33.829656],[135.6385707,33.8296752],[135.6390386,33.8297397],[135.6395299,33.82991],[135.6397895,33.8299968],[135.6403973,33.8301931],[135.6404328,33.8302236],[135.6404802,33.8303849],[135.640536,33.8304247],[135.6405766,33.8304192],[135.64063,33.830538],[135.640725,33.830701],[135.640819,33.830825],[135.640971,33.83091],[135.6411529,33.8309868],[135.6414449,33.8311498],[135.6416999,33.8312747],[135.6418165,33.8313548],[135.6419682,33.8314718],[135.6420883,33.831518],[135.6423114,33.8315081],[135.6424539,33.8315176],[135.6426027,33.8315618],[135.6427582,33.8316459],[135.642912,33.831818],[135.642959,33.83184],[135.643013,33.831846],[135.643108,33.831812],[135.64329,33.831688],[135.6433348,33.8316462],[135.643411,33.831575],[135.6436024,33.8312814],[135.6436961,33.8312504],[135.6438301,33.8312653],[135.6439212,33.8313171],[135.6439509,33.8313746],[135.6439547,33.8314619],[135.644019,33.831677],[135.6440793,33.8317811],[135.6441401,33.8318267],[135.6442812,33.8318546],[135.644407,33.8318392],[135.644549,33.8317538],[135.6446538,33.8316972],[135.6447971,33.831649],[135.644909,33.8316363],[135.6450206,33.8316535],[135.64547,33.831818],[135.645679,33.831863],[135.646111,33.831891],[135.646212,33.831913],[135.646347,33.831993],[135.646408,33.832071],[135.646455,33.83219],[135.646455,33.832353],[135.646313,33.832759],[135.646286,33.832872],[135.646279,33.832985],[135.646306,33.83303],[135.646509,33.833244],[135.646576,33.833345],[135.6466498,33.8334818],[135.6466896,33.8335703],[135.6467669,33.8336501],[135.6468822,33.8336843],[135.6470723,33.8337108],[135.6473206,33.8337185],[135.6475027,33.8337218],[135.6476434,33.8337165],[135.6478137,33.8336488],[135.6479554,33.833527],[135.6481169,33.8333889],[135.6486117,33.8331195],[135.648769,33.833154],[135.648857,33.833182],[135.649093,33.833346],[135.649167,33.833385],[135.649262,33.833391],[135.649342,33.833363],[135.649633,33.833171],[135.650044,33.832866],[135.650207,33.832828],[135.650347,33.832855],[135.650497,33.832979],[135.650625,33.833154],[135.650733,33.833334],[135.650849,33.833492],[135.650875,33.83356],[135.650861,33.833971],[135.650869,33.834017],[135.650929,33.834084],[135.65124,33.834218],[135.651361,33.834264],[135.651456,33.83436],[135.651523,33.83454],[135.651557,33.834698],[135.651564,33.834974],[135.651625,33.835115],[135.651713,33.835222],[135.651834,33.835312],[135.651949,33.835346],[135.652089,33.835346],[135.652138,33.83534],[135.652327,33.835262],[135.652596,33.83512],[135.6527203,33.8350405],[135.6530476,33.8349162],[135.6531536,33.8349104],[135.6532678,33.8349386],[135.653382,33.835035],[135.6535489,33.8352261],[135.6536306,33.8352803],[135.6537677,33.8352976],[135.654149,33.8352819],[135.6543205,33.8353498],[135.6544229,33.8354384],[135.6544881,33.8355391],[135.6545204,33.8355479],[135.6545699,33.8355328],[135.6546871,33.835838],[135.654743,33.836192],[135.654736,33.83644],[135.654749,33.836507],[135.654776,33.836559],[135.654806,33.836586],[135.654878,33.83661],[135.6550478,33.8365593],[135.6553868,33.8363611],[135.6554811,33.8362777],[135.6555734,33.8360925],[135.6556572,33.8360488],[135.6558337,33.836025],[135.6559112,33.8359852],[135.656318,33.835641],[135.6564877,33.8355178],[135.6566157,33.8354524],[135.6567094,33.835428],[135.6568356,33.8354118],[135.6571653,33.8353923],[135.6573626,33.8354152],[135.6575766,33.8354868],[135.6578173,33.8356334],[135.6579204,33.8356188],[135.6580022,33.835631],[135.6581417,33.8356399],[135.6583267,33.8357291],[135.6583428,33.835836],[135.6584367,33.8359051],[135.6585855,33.8359967],[135.6586473,33.8360354],[135.6587116,33.8364744],[135.6589061,33.8365846],[135.6593811,33.8364458],[135.6594051,33.836147],[135.6597538,33.8362589],[135.6600217,33.8361424],[135.6603966,33.836115],[135.6605624,33.8362175],[135.6608445,33.8361748],[135.6608102,33.8363689],[135.6611199,33.8364491],[135.6617059,33.8364873],[135.6619999,33.8368433],[135.6627505,33.8369534],[135.6632281,33.8369607],[135.6636267,33.8369052],[135.6641042,33.8371013],[135.6645588,33.8371775],[135.6648019,33.8370602],[135.664995,33.8373319],[135.66539,33.837527],[135.6656177,33.8380305],[135.666195,33.838117],[135.6663673,33.838247],[135.6666206,33.8383348],[135.6668687,33.8385887],[135.6669775,33.8383104],[135.6672221,33.8384724],[135.6671195,33.8389217],[135.6672048,33.8389822],[135.667621,33.83879],[135.667724,33.838625],[135.667869,33.8386786],[135.6680047,33.8387436],[135.66811,33.8387867],[135.6682911,33.8388268],[135.668289,33.8389346],[135.668193,33.8390735],[135.6682152,33.8392292],[135.668122,33.839546],[135.667877,33.839972],[135.667837,33.840095],[135.667955,33.840464],[135.667946,33.840517],[135.667923,33.840557],[135.667768,33.840636],[135.667709,33.840715],[135.66759,33.841181],[135.667638,33.84124],[135.667958,33.841309],[135.668101,33.841389],[135.668314,33.841567],[135.668398,33.841587],[135.668599,33.841518],[135.668671,33.841528],[135.668931,33.841785],[135.669038,33.841824],[135.669466,33.841824],[135.669525,33.841854],[135.669584,33.841983],[135.669656,33.842013],[135.670324,33.842134],[135.670645,33.84249],[135.671037,33.842678],[135.671536,33.842619],[135.67188,33.84254],[135.671897,33.842699],[135.671884,33.842916],[135.671924,33.843102],[135.671993,33.843341],[135.672115,33.843456],[135.672142,33.843536],[135.6721421,33.8435981],[135.6722617,33.8436793],[135.6724313,33.8437278],[135.6725102,33.8438204],[135.6727438,33.8437273],[135.6728915,33.843659],[135.6730606,33.8436695],[135.673219,33.8437905],[135.6732751,33.8439241],[135.673311,33.8441409],[135.6733704,33.8443031],[135.6733898,33.8444675],[135.6732161,33.8445694],[135.673502,33.844618],[135.673623,33.844353],[135.673676,33.844239],[135.673792,33.844155],[135.6740243,33.8440373],[135.6742024,33.8440767],[135.6743819,33.8441096],[135.6745924,33.8440852],[135.6747055,33.8441576],[135.6746723,33.8442546],[135.6746233,33.8444163],[135.67465,33.8445118],[135.6747301,33.8446342],[135.674999,33.8446844],[135.6751887,33.8446921],[135.6751284,33.8448592],[135.6749258,33.8449906],[135.6750585,33.8450503],[135.6752197,33.8451532],[135.6753613,33.8451955],[135.6755918,33.8451712],[135.675813,33.845151],[135.6759858,33.8452619],[135.6761549,33.8453503],[135.6764774,33.8453578],[135.6768364,33.8454197],[135.6770007,33.8452967],[135.6772765,33.8453005],[135.6775583,33.8453121],[135.6776804,33.8454181],[135.6779216,33.8455319],[135.6780649,33.8456519],[135.6782787,33.8457578],[135.6784998,33.8459168],[135.6787958,33.8461539],[135.6790122,33.8463355],[135.6792814,33.846469],[135.6794491,33.8465678],[135.6796029,33.8467445],[135.6797092,33.8469609],[135.679869,33.8471351],[135.6800999,33.847377],[135.6801572,33.847592],[135.6803838,33.8477655],[135.6809371,33.8478441],[135.6810215,33.8480292],[135.681152,33.8481877],[135.6814888,33.8482755],[135.6817228,33.8483587],[135.6818906,33.8483499],[135.6822746,33.848425],[135.6826459,33.8484878],[135.6827258,33.8484252],[135.6828956,33.8482464],[135.6831405,33.848099],[135.6834322,33.8481025],[135.6838274,33.8480918],[135.6840875,33.848108],[135.6844627,33.8480645],[135.6847568,33.8480276],[135.6850479,33.8479843],[135.6851928,33.8479071],[135.6853609,33.8477663],[135.6856123,33.8476731],[135.6858623,33.8476048],[135.6859764,33.8475079],[135.686094,33.8473605],[135.6862155,33.8472695],[135.6864133,33.8473943],[135.6865979,33.8474531],[135.6869587,33.8473832],[135.6871907,33.8472426],[135.6874295,33.8471616],[135.6876417,33.8469657],[135.687711,33.846526],[135.687761,33.846416],[135.687852,33.846358],[135.687963,33.84603],[135.688144,33.845904],[135.688255,33.845719],[135.688346,33.845497],[135.688447,33.845237],[135.688407,33.845069],[135.6881707,33.8447127],[135.6882413,33.8445843],[135.688385,33.844426],[135.6884782,33.8442458],[135.6885498,33.8440726],[135.6886443,33.8438376],[135.688767,33.843589],[135.688975,33.8437158],[135.6893062,33.8439737],[135.6899457,33.8440241],[135.6902429,33.8440616],[135.6906416,33.8444457],[135.6909952,33.8445043],[135.6913422,33.8445775],[135.691956,33.844673],[135.6922348,33.8448289],[135.6921896,33.8449662],[135.6925438,33.845197],[135.6928314,33.8451936],[135.6930598,33.8453205],[135.693473,33.8453825],[135.6936774,33.8455252],[135.6937192,33.8456584],[135.6935902,33.8458619],[135.6941135,33.8457616],[135.6945224,33.8459211],[135.6947423,33.8460349],[135.6949037,33.8463288],[135.6949364,33.8465573],[135.6949891,33.8466085],[135.6951163,33.8466376],[135.6952469,33.8465595],[135.6955159,33.8466558],[135.6957069,33.8465631],[135.6960355,33.8467132],[135.696224,33.847129],[135.696502,33.84737],[135.696705,33.847628],[135.6971973,33.8478616],[135.6972375,33.8476745],[135.697453,33.8477719],[135.6975782,33.8480019],[135.6976224,33.8481166],[135.697593,33.8482275],[135.6975539,33.8482713],[135.6977364,33.8483338],[135.697978,33.848367],[135.6984554,33.8485257],[135.698166,33.8486317],[135.6978337,33.8490526],[135.6978866,33.8492783],[135.6981549,33.8493749],[135.6980433,33.8496096],[135.6981219,33.8497764],[135.698466,33.8499678],[135.6990511,33.8501443],[135.6994612,33.8501645],[135.6995952,33.8504612],[135.6996021,33.8507165],[135.6994262,33.8508889],[135.6993058,33.8510928],[135.6993498,33.8512334],[135.6992331,33.8514034],[135.6991512,33.8515863],[135.6993994,33.8516373],[135.6996278,33.8515433],[135.699884,33.851605],[135.7002441,33.8515541],[135.7005052,33.8515809],[135.7007729,33.8516107],[135.701105,33.8515686],[135.7015202,33.8516178],[135.7017228,33.851607],[135.7018883,33.8516994],[135.7020065,33.8519914],[135.7020208,33.8522178],[135.7019975,33.8523901],[135.701885,33.852518],[135.7017466,33.8526153],[135.7016619,33.8527401],[135.7017081,33.8528695],[135.7018196,33.8529085],[135.701917,33.852946],[135.7022817,33.8530594],[135.702515,33.85313],[135.7026943,33.8530943],[135.7028237,33.8530464],[135.7029584,33.8530178],[135.7031337,33.8530416],[135.7032166,33.8531981],[135.703235,33.853339],[135.7033525,33.8534492],[135.703615,33.853508],[135.703698,33.853593],[135.703744,33.853593],[135.703818,33.853508],[135.703938,33.853293],[135.704039,33.853239],[135.704113,33.853223],[135.704399,33.853262],[135.704648,33.853354],[135.704722,33.853446],[135.704796,33.853623],[135.7048944,33.8537613],[135.7050493,33.8538286],[135.7051622,33.853941],[135.7052277,33.8541971],[135.7053609,33.8544134],[135.7053313,33.8545476],[135.7053656,33.8546512],[135.7055175,33.8547291],[135.705666,33.854749],[135.705768,33.854811],[135.705795,33.854957],[135.705851,33.854996],[135.705961,33.854973],[135.706183,33.854926],[135.706312,33.854919],[135.706653,33.85498],[135.706773,33.855049],[135.706997,33.855205],[135.7072483,33.8550905],[135.7077461,33.8552104],[135.708402,33.8555957],[135.708898,33.856204],[135.7091666,33.8565287],[135.7097056,33.8567887],[135.7099651,33.8571259],[135.710664,33.8574102],[135.7110005,33.8573897],[135.7116956,33.8572943],[135.7123916,33.8571555],[135.7126309,33.8572762],[135.7128927,33.8572166],[135.7135983,33.8570488],[135.713906,33.856918],[135.7144326,33.8570331],[135.7152064,33.8570693],[135.71553,33.856952],[135.715681,33.856929],[135.7159721,33.8568283],[135.716286,33.856746],[135.716561,33.856746],[135.716726,33.856711],[135.71696,33.856619],[135.7172343,33.8565614],[135.7175751,33.8565603],[135.7176892,33.8565639],[135.718117,33.856622],[135.718308,33.856685],[135.718475,33.856783],[135.718605,33.856922],[135.71873,33.857027],[135.718873,33.857104],[135.719007,33.857104],[135.719124,33.857069],[135.719743,33.856657],[135.719969,33.85656],[135.720178,33.856553],[135.720387,33.856594],[135.720672,33.856708],[135.7210119,33.8568733],[135.721476,33.857099],[135.721584,33.857168],[135.721609,33.857245],[135.721601,33.857329],[135.721492,33.857454],[135.721384,33.857587],[135.721317,33.857852],[135.721258,33.857985],[135.721065,33.858155],[135.720789,33.858309],[135.720638,33.858434],[135.720496,33.858685],[135.7203796,33.8590658],[135.7205272,33.8591282],[135.7205151,33.8592017],[135.720491,33.859254],[135.720495,33.8593041],[135.720554,33.85946],[135.7205456,33.8594904],[135.7205024,33.8595152],[135.7205017,33.8595536],[135.7205862,33.8595881],[135.7205969,33.8596505],[135.7206331,33.8596934],[135.7207739,33.8598014],[135.7208819,33.8599662],[135.721008,33.8600069],[135.72102,33.8600291],[135.721014,33.8601427],[135.7209892,33.8601689],[135.7209215,33.8601811],[135.7208819,33.8601644],[135.7207967,33.860111],[135.7205372,33.8600854],[135.7204923,33.8600993],[135.7204662,33.8601316],[135.7204353,33.8602797],[135.7205567,33.8605837],[135.7205902,33.8606984],[135.7206278,33.8609768],[135.720664,33.861037],[135.7207055,33.8610748],[135.72079,33.8611205],[135.7208557,33.8612285],[135.7209077,33.8616378],[135.721543,33.86162],[135.721834,33.861602],[135.721983,33.861639],[135.7222997,33.8617147],[135.7225622,33.8617943],[135.722773,33.861832],[135.723104,33.861689],[135.723248,33.861592],[135.7234,33.861375],[135.7234726,33.8612499],[135.7236877,33.8611577],[135.7237851,33.8610714],[135.7240434,33.8611247],[135.7240789,33.861226],[135.7242107,33.8611999],[135.7244778,33.861152],[135.7247193,33.8612427],[135.725122,33.861494],[135.725399,33.86164],[135.7255,33.861739],[135.72562,33.861962],[135.725712,33.862032],[135.725851,33.862062],[135.726385,33.862109],[135.726846,33.862185],[135.727104,33.862185],[135.72738,33.862132],[135.72778,33.861979],[135.727927,33.861885],[135.728075,33.861716],[135.728194,33.861609],[135.7283348,33.8614956],[135.7285624,33.8614029],[135.7289553,33.8612419],[135.7291685,33.8611719],[135.7294262,33.8610813],[135.7295473,33.8610319],[135.7296997,33.861003],[135.7299275,33.861018],[135.7301406,33.8610333],[135.7302853,33.8610421],[135.7303765,33.8610203],[135.7304213,33.8609964],[135.730531,33.860946],[135.730621,33.860892],[135.730796,33.860846],[135.731047,33.860859],[135.731473,33.860951],[135.731925,33.860989],[135.73202,33.860989],[135.732105,33.860947],[135.732408,33.860753],[135.732538,33.860691],[135.732689,33.860636],[135.73283,33.860603],[135.733176,33.86059],[135.733342,33.860532],[135.733629,33.860376],[135.733901,33.860238],[135.734472,33.860079],[135.734815,33.859999],[135.735277,33.85984],[135.735463,33.859727],[135.735548,33.859648],[135.735754,33.859288],[135.735865,33.85911],[135.736005,33.858989],[135.736161,33.858884],[135.736567,33.858679],[135.736694,33.858599],[135.736749,33.858569],[135.736844,33.858469],[135.736914,33.85836],[135.736949,33.85823],[135.737316,33.858139],[135.737608,33.85809],[135.737748,33.85809],[135.738111,33.858188],[135.738742,33.858276],[135.738999,33.858334],[135.739197,33.858324],[135.739477,33.858432],[135.739606,33.858432],[135.739793,33.858324],[135.74053,33.858246],[135.741009,33.858217],[135.741259,33.858237],[135.741469,33.858285],[135.741925,33.858451],[135.74259,33.858558],[135.743258,33.858763],[135.74369,33.858812],[135.744438,33.858763],[135.745261,33.858744],[135.7458696,33.8586745],[135.7462623,33.8586986],[135.7464876,33.8587289],[135.746768,33.858705],[135.747181,33.858571],[135.747497,33.858566],[135.747585,33.858521],[135.747707,33.858481],[135.747963,33.858436],[135.748132,33.858425],[135.7481738,33.8584301],[135.748186,33.858357],[135.748402,33.858375],[135.748713,33.858408],[135.748882,33.858453],[135.7490432,33.8585179],[135.7491979,33.8586375],[135.749267,33.858842],[135.749321,33.858898],[135.749463,33.858983],[135.749895,33.859198],[135.750274,33.859339],[135.750376,33.859373],[135.750544,33.859413],[135.750795,33.85944],[135.751173,33.859458],[135.751403,33.859479],[135.7517,33.859541],[135.751849,33.859598],[135.7523339,33.859798],[135.7526761,33.8599211],[135.7529765,33.8600347],[135.7533239,33.8599868],[135.7536482,33.8600076],[135.753707,33.860004],[135.753863,33.8600076],[135.7539342,33.8599989],[135.7540311,33.8599407],[135.7541187,33.8598854],[135.754254,33.859789],[135.754416,33.859783],[135.7546028,33.8598946],[135.755119,33.860015],[135.755396,33.860095],[135.7555698,33.8601386],[135.7556432,33.8601562],[135.7557166,33.8601537],[135.7559047,33.8602437],[135.7561498,33.8602907],[135.7564539,33.8602719],[135.7567129,33.8602456],[135.7569376,33.8601679],[135.7571418,33.8602036],[135.757286,33.8601565],[135.7573781,33.8600763],[135.7575652,33.8599072],[135.757647,33.859775],[135.75786,33.85983],[135.757962,33.85983],[135.758043,33.859795],[135.758225,33.859643],[135.758327,33.859598],[135.758583,33.859565],[135.758782,33.85947],[135.758968,33.859277],[135.759002,33.859209],[135.75903,33.859118],[135.75905,33.8589],[135.759077,33.858815],[135.75916,33.858688],[135.759428,33.85868],[135.759549,33.858719],[135.759833,33.85886],[135.760373,33.859001],[135.760529,33.859041],[135.760705,33.859029],[135.760915,33.858967],[135.76105,33.8589],[135.761145,33.858821],[135.761225,33.858736],[135.761314,33.858505],[135.761347,33.85824],[135.761483,33.85797],[135.761618,33.857823],[135.761719,33.857755],[135.761996,33.857485],[135.762064,33.857389],[135.762124,33.85722],[135.762205,33.857129],[135.762442,33.857023],[135.762692,33.856724],[135.762813,33.856628],[135.763009,33.85638],[135.763164,33.856233],[135.763293,33.856138],[135.763462,33.855951],[135.763577,33.855754],[135.763613,33.855536],[135.763719,33.855432],[135.763847,33.855342],[135.763867,33.855337],[135.763867,33.855286],[135.763874,33.855196],[135.763975,33.854886],[135.764158,33.854507],[135.764212,33.854396],[135.764313,33.854057],[135.764374,33.853927],[135.764421,33.853882],[135.764678,33.853769],[135.764874,33.853735],[135.765129,33.853661],[135.765218,33.853566],[135.765225,33.853487],[135.765212,33.853442],[135.765239,33.85324],[135.76536,33.853194],[135.765617,33.853194],[135.765678,33.853183],[135.7658919,33.8531947],[135.7660885,33.8530327],[135.7661736,33.8527915],[135.7662481,33.852424],[135.766603,33.852299],[135.7668285,33.8522099],[135.7670231,33.8520723],[135.7671379,33.8518622],[135.7671248,33.8516475],[135.767235,33.851472],[135.7674836,33.851338],[135.767454,33.851064],[135.767502,33.850946],[135.767759,33.850726],[135.767738,33.85063],[135.7677345,33.8506233],[135.767651,33.850529],[135.76761,33.850467],[135.767556,33.850235],[135.767583,33.850111],[135.767617,33.850038],[135.767678,33.849959],[135.767806,33.849858],[135.768076,33.849655],[135.768204,33.849491],[135.768204,33.849367],[135.768144,33.849159],[135.7680866,33.8487064],[135.7681153,33.8484727],[135.7680808,33.8482333],[135.76813,33.848082],[135.7683105,33.8479879],[135.768541,33.8479195],[135.7686581,33.847793],[135.768683,33.847478],[135.768744,33.847348],[135.768859,33.84723],[135.7689675,33.847184],[135.769149,33.847107],[135.76925,33.84696],[135.76944,33.846825],[135.76971,33.846604],[135.769805,33.846497],[135.769811,33.846221],[135.769852,33.846159],[135.769926,33.846085],[135.77025,33.845826],[135.770487,33.8456],[135.77063,33.845478],[135.770757,33.84541],[135.771027,33.8453428],[135.7711392,33.8452545],[135.771217,33.844981],[135.771636,33.844497],[135.771785,33.844299],[135.7722334,33.8437676],[135.7724022,33.8435303],[135.7725447,33.8431332],[135.7724758,33.8430742],[135.7725204,33.8428234],[135.7726495,33.8425183],[135.7728007,33.8421611],[135.7731709,33.8413538],[135.7733278,33.8412212],[135.7733269,33.8411116],[135.7733263,33.8410339],[135.7732973,33.8409261],[135.7731806,33.8407024],[135.7731696,33.8406077],[135.7733694,33.8399866],[135.7734364,33.8399264],[135.7735303,33.8399353],[135.7735719,33.8398924],[135.7736986,33.8399197],[135.7739685,33.8400145]]},"properties":{"routeId":"kumano-kodo-nakahechi","name":"Kumano Kodo","type":"main","source":"OpenStreetMap (6 relations, member ways only, shortest connected path between stage boundaries, fetched 2026-09-08)","notes":"The walked line: the route's main line with optional variants and detours left out. Stage geometry is cut from this, never from route.geojson."}}]}
